Name,City,Country,IATA,Latitude,Longitude,Altitude,Timezone,DST
Antwerp International Airport (Deurne),Antwerp,Belgium,ANR,51.189399719200004,4.46027994156,39,1,E
Brussels Airport,Brussels,Belgium,BRU,50.9014015198,4.48443984985,184,1,E
Brussels South Charleroi Airport,Charleroi,Belgium,CRL,50.459202000000005,4.4538199999999994,614,1,E
Wevelgem Airport,Kortrijk-vevelgem,Belgium,KJK,50.817199707,3.2047200202900004,64,1,E
Liège Airport,Liege,Belgium,LGG,50.63740158081055,5.443220138549805,659,1,E
Ostend-Bruges International Airport,Ostend,Belgium,OST,51.1988983154,2.8622200489,13,1,E
Zoersel (Oostmalle) Airfield,Zoersel,Belgium,OBL,51.264702,4.75333,53,1,E
Altenburg-Nobitz Airport,Altenburg,Germany,AOC,50.981945,12.506389,640,1,E
Riesa-Göhlis Airport,Riesa,Germany,IES,51.293609619099996,13.3561105728,322,1,E
Rechlin-Lärz Airport,Rechlin-laerz,Germany,REB,53.306388855,12.7522220612,220,1,E
Schönhagen Airport,Schoenhagen,Germany,QXH,52.203609,13.156389,152,1,E
Barth Airport,Barth,Germany,BBH,54.338253,12.710515,23,1,E
"Magdeburg ""City"" Airport",Magdeburg,Germany,ZMG,52.073612,11.626389,259,1,E
Cottbus-Drewitz Airport,Cottbus,Germany,CBU,51.889441999999995,14.531944000000001,272,1,E
Berlin-Schönefeld Airport,Berlin,Germany,SXF,52.380001,13.5225,157,1,E
Dresden Airport,Dresden,Germany,DRS,51.1328010559082,13.767200469970705,755,1,E
Erfurt Airport,Erfurt,Germany,ERF,50.97980117797852,10.958100318908693,1036,1,E
Frankfurt am Main Airport,Frankfurt,Germany,FRA,50.033333,8.570556,364,1,E
Münster Osnabrück Airport,Munster,Germany,FMO,52.134601593,7.68483018875,160,1,E
Hamburg Airport,Hamburg,Germany,HAM,53.630401611328004,9.988229751586902,53,1,E
Berlin-Tempelhof International Airport,Berlin,Germany,THF,52.472999572753906,13.403900146484375,167,1,E
Cologne Bonn Airport,Cologne,Germany,CGN,50.865898132299996,7.1427397728,302,1,E
Düsseldorf Airport,Duesseldorf,Germany,DUS,51.289501,6.766780000000001,147,1,E
Munich Airport,Munich,Germany,MUC,48.353802,11.7861,1487,1,E
Nuremberg Airport,Nuernberg,Germany,NUE,49.498699,11.078056,1046,1,E
Leipzig/Halle Airport,Leipzig,Germany,LEJ,51.423889,12.236388999999999,465,1,E
Saarbrücken Airport,Saarbruecken,Germany,SCN,49.2145996094,7.10950994492,1058,1,E
Stuttgart Airport,Stuttgart,Germany,STR,48.6898994446,9.22196006775,1276,1,E
Berlin-Tegel Airport,Berlin,Germany,TXL,52.5597,13.2877,122,1,E
Hannover Airport,Hannover,Germany,HAJ,52.461101532,9.68507957458,183,1,E
Bremen Airport,Bremen,Germany,BRE,53.0475006104,8.78666973114,14,1,E
Frankfurt-Egelsbach Airport,Egelsbach,Germany,QEF,49.959998999999996,8.645833,384,1,E
Frankfurt-Hahn Airport,Hahn,Germany,HHN,49.9487,7.263889999999999,1649,1,E
Mannheim-City Airport,Mannheim,Germany,MHG,49.473057,8.514167,308,1,E
Eisenach-Kindel Airport,Eisenach,Germany,EIB,50.991603999999995,10.47973,1112,1,E
Siegerland Airport,Siegerland,Germany,SGE,50.70769882202149,8.082969665527344,1966,1,E
Hamburg-Finkenwerder Airport,Hamburg,Germany,XFW,53.5352783203125,9.835556030273438,23,1,E
Kiel-Holtenau Airport,Kiel,Germany,KEL,54.37944412231445,10.145277976989746,102,1,E
Lübeck Blankensee Airport,Luebeck,Germany,LBC,53.805400848400005,10.7192001343,53,1,E
Essen Mulheim Airport,Essen,Germany,ESS,51.40230178833008,6.9373297691345215,424,1,E
Bielefeld Airport,Bielefeld,Germany,BFE,51.964721999999995,8.544444,454,1,E
Mönchengladbach Airport,Moenchengladbach,Germany,MGL,51.230278000000006,6.504444,125,1,E
Paderborn Lippstadt Airport,Paderborn,Germany,PAD,51.614101409899995,8.616319656369999,699,1,E
Dortmund Airport,Dortmund,Germany,DTM,51.518299102799986,7.61223983765,425,1,E
Augsburg Airport,Augsburg,Germany,AGB,48.425278000000006,10.931667,1516,1,E
Oberpfaffenhofen Airport,Oberpfaffenhofen,Germany,OBF,48.081402000000004,11.2831,1947,1,E
Straubing Airport,Straubing,Germany,RBM,48.90083312988281,12.516667366027832,1047,1,E
Friedrichshafen Airport,Friedrichshafen,Germany,FDH,47.671298980699994,9.511489868160002,1367,1,E
Schwerin Parchim Airport,Parchim,Germany,SZW,53.426998,11.7834,166,1,E
Bayreuth Airport,Bayreuth,Germany,BYU,49.985001000000004,11.64,1601,1,E
Burg Feuerstein Airport,Burg Feuerstein,Germany,URD,49.794166564940994,11.133610725402999,1673,1,E
Hof-Plauen Airport,Hof,Germany,HOQ,50.288612365722656,11.856389045715332,1959,1,E
Zweibrücken Airport,Zweibruecken,Germany,ZQW,49.2094,7.4005600000000005,1132,1,E
Donaueschingen-Villingen Airport,Donaueschingen,Germany,ZQL,47.97333145139999,8.52222156525,2231,1,E
Braunschweig-Wolfsburg Airport,Braunschweig,Germany,BWE,52.319199,10.5561,295,1,E
Kassel-Calden Airport,Kassel,Germany,KSF,51.417273,9.384967,820,1,E
Bremerhaven Airport,Bremerhaven,Germany,BRV,53.50694300000001,8.572778,10,1,E
Emden Airport,Emden,Germany,EME,53.391109,7.2275,3,1,E
Wilhelmshaven-Mariensiel Airport,Wilhelmshaven,Germany,WVN,53.502220153808594,8.05222225189209,16,1,E
Borkum Airport,Borkum,Germany,BMK,53.59639,6.709167,3,1,E
Norderney Airport,Norderney,Germany,NRD,53.70694351196289,7.230000019073486,7,1,E
Flensburg-Schäferhaus Airport,Flensburg,Germany,FLF,54.77333450317383,9.378889083862305,131,1,E
Westerland Sylt Airport,Westerland,Germany,GWT,54.9132003784,8.34047031403,51,1,E
Kärdla Airport,Kardla,Estonia,KDL,58.99079895019531,22.830699920654297,18,2,E
Kuressaare Airport,Kuressaare,Estonia,URE,58.22990036010742,22.50950050354004,14,2,E
Pärnu Airport,Parnu,Estonia,EPU,58.41899871826172,24.47279930114746,47,2,E
Lennart Meri Tallinn Airport,Tallinn-ulemiste International,Estonia,TLL,59.41329956049999,24.8327999115,131,2,E
Tartu Airport,Tartu,Estonia,TAY,58.30749893189999,26.6903991699,219,2,E
Enontekio Airport,Enontekio,Finland,ENF,68.36260223388699,23.424299240112,1005,2,E
Halli Airport,Halli,Finland,KEV,61.856039,24.786686,479,2,E
Helsinki Malmi Airport,Helsinki,Finland,HEM,60.254600524902344,25.04280090332031,57,2,E
Helsinki Vantaa Airport,Helsinki,Finland,HEL,60.317199707031,24.963300704956,179,2,E
Hyvinkää Airfield,Hyvinkaa,Finland,HYV,60.6543998718,24.881099700900002,430,2,E
Kitee Airport,Kitee,Finland,KTQ,62.1661,30.073601,364,2,E
Ivalo Airport,Ivalo,Finland,IVL,68.607299804688,27.405300140380998,481,2,E
Joensuu Airport,Joensuu,Finland,JOE,62.662899017334006,29.607500076294,398,2,E
Jyvaskyla Airport,Jyvaskyla,Finland,JYV,62.399501800537,25.678300857544,459,2,E
Kauhava Airport,Kauhava,Finland,KAU,63.127102,23.051399,151,2,E
Kemi-Tornio Airport,Kemi,Finland,KEM,65.778701782227,24.582099914551,61,2,E
Kajaani Airport,Kajaani,Finland,KAJ,64.285499572754,27.692399978638,483,2,E
Kauhajoki Airport,Kauhajoki,Finland,KHJ,62.4625015259,22.3931007385,407,2,E
Kokkola-Pietarsaari Airport,Kruunupyy,Finland,KOK,63.721199035645,23.143100738525,84,2,E
Kuusamo Airport,Kuusamo,Finland,KAO,65.98760223388699,29.239400863647,866,2,E
Kittilä Airport,Kittila,Finland,KTT,67.700996398926,24.846799850464002,644,2,E
Kuopio Airport,Kuopio,Finland,KUO,63.007099151611,27.797800064087,323,2,E
Lahti Vesivehmaa Airport,Vesivehmaa,Finland,QLF,61.144199,25.693501,502,2,E
Lappeenranta Airport,Lappeenranta,Finland,LPP,61.044601,28.144743,349,2,E
Mariehamn Airport,Mariehamn,Finland,MHQ,60.122200012207,19.898199081421,17,2,E
Mikkeli Airport,Mikkeli,Finland,MIK,61.6866,27.201798999999998,329,2,E
Oulu Airport,Oulu,Finland,OUL,64.930099487305,25.354600906372,47,2,E
Pori Airport,Pori,Finland,POR,61.461700439453004,21.799999237061,44,2,E
Rovaniemi Airport,Rovaniemi,Finland,RVN,66.564796447754,25.830400466919,642,2,E
Savonlinna Airport,Savonlinna,Finland,SVL,61.943099975586,28.945100784302,311,2,E
Sodankyla Airport,Sodankyla,Finland,SOT,67.3949966431,26.619100570700002,602,2,E
Tampere-Pirkkala Airport,Tampere,Finland,TMP,61.414100646973,23.604400634766,390,2,E
Turku Airport,Turku,Finland,TKU,60.514099121094,22.262800216675,161,2,E
Utti Air Base,Utti,Finland,UTI,60.89640045165999,26.938400268555004,339,2,E
Vaasa Airport,Vaasa,Finland,VAA,63.050701141357,21.762199401855,19,2,E
Varkaus Airport,Varkaus,Finland,VRK,62.171100616455,27.868600845337,286,2,E
Ylivieska Airfield,Ylivieska-raudaskyla,Finland,YLI,64.0547222,24.7252778,252,2,E
Belfast International Airport,Belfast,United Kingdom,BFS,54.6575012207,-6.21582984924,268,0,E
St Angelo Airport,Enniskillen,United Kingdom,ENK,54.39889907836914,-7.651669979095459,155,0,E
George Best Belfast City Airport,Belfast,United Kingdom,BHD,54.61809921264648,-5.872499942779541,15,0,E
City of Derry Airport,Londonderry,United Kingdom,LDY,55.04280090332031,-7.161109924316406,22,0,E
Birmingham International Airport,Birmingham,United Kingdom,BHX,52.4538993835,-1.7480299472799998,327,0,E
Coventry Airport,Coventry,United Kingdom,CVT,52.3697013855,-1.47971999645,267,0,E
Gloucestershire Airport,Golouchestershire,United Kingdom,GLO,51.89419937133789,-2.1672201156616206,101,0,E
Cotswold Airport,Pailton,United Kingdom,GBA,51.668095,-2.05694,433,0,E
Manchester Airport,Manchester,United Kingdom,MAN,53.35369873046875,-2.2749500274658203,257,0,E
Newquay Cornwall Airport,Newquai,United Kingdom,NQY,50.44060134887695,-4.995409965515137,390,0,E
RAF Lyneham,Lyneham,United Kingdom,LYE,51.5051,-1.99343,513,0,E
RNAS Yeovilton,Yeovilton,United Kingdom,YEO,51.0093994140625,-2.638819932937622,75,0,E
Haverfordwest Airport,Haverfordwest,United Kingdom,HAW,51.83309936523438,-4.9611101150512695,159,0,E
Cardiff International Airport,Cardiff,United Kingdom,CWL,51.39670181274414,-3.343329906463623,220,0,E
Swansea Airport,Swansea,United Kingdom,SWS,51.60530090332031,-4.0678300857543945,299,0,E
Bristol Airport,Bristol,United Kingdom,BRS,51.382702,-2.71909,622,0,E
Liverpool John Lennon Airport,Liverpool,United Kingdom,LPL,53.33359909057617,-2.849720001220703,80,0,E
London Luton Airport,London,United Kingdom,LTN,51.87469863891602,-0.36833301186561584,526,0,E
Plymouth City Airport,Plymouth,United Kingdom,PLH,50.422798,-4.10583,476,0,E
Bournemouth Airport,Bournemouth,United Kingdom,BOH,50.77999877929688,-1.8424999713897705,38,0,E
Southampton Airport,Southampton,United Kingdom,SOU,50.95029830932617,-1.3567999601364136,44,0,E
Lasham Airport,Lasham,United Kingdom,QLA,51.18719863891602,-1.0334999561309814,618,0,E
Alderney Airport,Alderney,Guernsey,ACI,49.706103999999996,-2.2147200000000002,290,0,E
Guernsey Airport,Guernsey,Guernsey,GCI,49.43500137329102,-2.601969957351685,336,0,E
Jersey Airport,Jersey,Jersey,JER,49.20790100097656,-2.1955099105834956,277,0,E
Shoreham Airport,Shoreham By Sea,United Kingdom,ESH,50.835602,-0.297222,7,0,E
London Biggin Hill Airport,Biggin Hill,United Kingdom,BQH,51.330799102799986,0.032499998807900006,598,0,E
London Gatwick Airport,London,United Kingdom,LGW,51.148102,-0.190278,202,0,E
London City Airport,London,United Kingdom,LCY,51.505299,0.055277999999999994,19,0,E
Farnborough Airport,Farnborough,United Kingdom,FAB,51.275798797600004,-0.776332974434,238,0,E
Blackbushe Airport,Blackbushe,United Kingdom,BBS,51.32389831542969,-0.8475000262260437,325,0,E
London Heathrow Airport,London,United Kingdom,LHR,51.4706,-0.461941,83,0,E
Southend Airport,Southend,United Kingdom,SEN,51.5713996887207,0.6955559849739075,49,0,E
Lydd Airport,Lydd,United Kingdom,LYX,50.95610046386719,0.939167022705078,13,0,E
Kent International Airport,Manston,United Kingdom,MSE,51.342201,1.3461100000000001,178,0,E
Carlisle Airport,Carlisle,United Kingdom,CAX,54.9375,-2.8091700077056885,190,0,E
Blackpool International Airport,Blackpool,United Kingdom,BLK,53.77170181274414,-3.0286099910736084,34,0,E
Humberside Airport,Humberside,United Kingdom,HUY,53.57440185546875,-0.350832998752594,121,0,E
Barrow Walney Island Airport,Barrow Island,United Kingdom,BWF,54.1286111,-3.2675,173,0,E
Leeds Bradford Airport,Leeds,United Kingdom,LBA,53.86589813232422,-1.6605700254440308,681,0,E
Warton Airport,Warton,United Kingdom,WRT,53.745098,-2.88306,55,0,E
Hawarden Airport,Hawarden,United Kingdom,CEG,53.1781005859375,-2.977780103683472,45,0,E
Isle of Man Airport,Isle Of Man,Isle of Man,IOM,54.08330154418945,-4.623889923095703,52,0,E
Newcastle Airport,Newcastle,United Kingdom,NCL,55.037498474121094,-1.6916699409484863,266,0,E
Durham Tees Valley Airport,Teesside,United Kingdom,MME,54.50920104980469,-1.4294099807739258,120,0,E
East Midlands Airport,East Midlands,United Kingdom,EMA,52.8311004639,-1.32806003094,306,0,E
Kirkwall Airport,Kirkwall,United Kingdom,KOI,58.957801818847656,-2.9049999713897705,50,0,E
Sumburgh Airport,Sumburgh,United Kingdom,LSI,59.87889862060547,-1.295560002326965,20,0,E
Wick Airport,Wick,United Kingdom,WIC,58.458900451660156,-3.09306001663208,126,0,E
Aberdeen Dyce Airport,Aberdeen,United Kingdom,ABZ,57.20190048217773,-2.1977798938751216,215,0,E
Inverness Airport,Inverness,United Kingdom,INV,57.54249954223633,-4.047500133514403,31,0,E
Glasgow International Airport,Glasgow,United Kingdom,GLA,55.8718986511,-4.43306016922,26,0,E
Edinburgh Airport,Edinburgh,United Kingdom,EDI,55.95000076293945,-3.372499942779541,135,0,E
Islay Airport,Islay,United Kingdom,ILY,55.68190002441406,-6.256669998168945,56,0,E
Glasgow Prestwick Airport,Prestwick,United Kingdom,PIK,55.5093994140625,-4.586669921875,65,0,E
Benbecula Airport,Benbecula,United Kingdom,BEB,57.48109817504883,-7.362780094146728,19,0,E
Scatsta Airport,Scatsta,United Kingdom,SCS,60.43280029296875,-1.2961100339889526,81,0,E
Dundee Airport,Dundee,United Kingdom,DND,56.45249938964844,-3.0258300304412837,17,0,E
Stornoway Airport,Stornoway,United Kingdom,SYY,58.215599060058594,-6.3311100006103525,26,0,E
Tiree Airport,Tiree,United Kingdom,TRE,56.49919891357422,-6.869170188903809,38,0,E
RAF Leuchars,Leuchars,United Kingdom,ADX,56.37289810180664,-2.8684399127960205,38,0,E
RAF Lossiemouth,Lossiemouth,United Kingdom,LMO,57.7052001953125,-3.339169979095459,42,0,E
Cambridge Airport,Cambridge,United Kingdom,CBG,52.205002,0.175,47,0,E
Norwich International Airport,Norwich,United Kingdom,NWI,52.675800323500006,1.28278005123,117,0,E
London Stansted Airport,London,United Kingdom,STN,51.8849983215,0.23499999940400002,348,0,E
Exeter International Airport,Exeter,United Kingdom,EXT,50.73440170288086,-3.4138898849487305,102,0,E
Bristol Filton Airport,Bristol,United Kingdom,FZO,51.519401550299996,-2.5908300876599997,226,0,E
Oxford (Kidlington) Airport,Oxford,United Kingdom,OXF,51.8368988037,-1.32000005245,270,0,E
RAF Benson,Benson,United Kingdom,BEX,51.616401672399995,-1.09582996368,226,0,E
RAF Lakenheath,Lakenheath,United Kingdom,LKZ,52.409301757799994,0.5609999895100001,32,0,E
RAF Mildenhall,Mildenhall,United Kingdom,MHZ,52.361900329589844,0.4864059984683991,33,0,E
RAF Wyton,Wyton,United Kingdom,QUY,52.357200622600004,-0.107832998037,135,0,E
RAF Fairford,Fairford,United Kingdom,FFD,51.6822013855,-1.7900300025900002,286,0,E
RAF Brize Norton,Brize Norton,United Kingdom,BZZ,51.75,-1.58362,288,0,E
RAF Odiham,Odiham,United Kingdom,ODH,51.2341003418,-0.9428250193600001,405,0,E
RAF Northolt,Northolt,United Kingdom,NHT,51.5530014038,-0.418166995049,124,0,E
RAF Coningsby,Coningsby,United Kingdom,QCY,53.0929985046,-0.166014000773,25,0,E
RAF Honington,Honington,United Kingdom,BEQ,52.34260177612305,0.7729390263557434,174,0,E
RAF Scampton,Scampton,United Kingdom,SQZ,53.307800293,-0.550832986832,202,0,E
RAF Linton-On-Ouse,Linton-on-ouse,United Kingdom,HRT,54.0489006042,-1.2527500391,53,0,E
RAF Waddington,Waddington,United Kingdom,WTN,53.1661987305,-0.5238109827040001,231,0,E
RAF Marham,Marham,United Kingdom,KNF,52.648394999999994,0.550692,75,0,E
Amsterdam Airport Schiphol,Amsterdam,Netherlands,AMS,52.308601,4.76389,-11,1,E
Maastricht Aachen Airport,Maastricht,Netherlands,MST,50.911701,5.7701400000000005,375,1,E
Eindhoven Airport,Eindhoven,Netherlands,EIN,51.4500999451,5.374529838559999,74,1,E
Eelde Airport,Groningen,Netherlands,GRQ,53.1197013855,6.579440116880001,17,1,E
Gilze Rijen Air Base,Gilze-rijen,Netherlands,GLZ,51.56740188598633,4.931829929351807,49,1,E
De Kooy Airport,De Kooy,Netherlands,DHR,52.92340087890625,4.780620098114014,3,1,E
Lelystad Airport,Lelystad,Netherlands,LEY,52.4603,5.52722,-13,1,E
Leeuwarden Air Base,Leeuwarden,Netherlands,LWR,53.228599548339844,5.760560035705566,3,1,E
Rotterdam The Hague Airport,Rotterdam,Netherlands,RTM,51.956902,4.43722,-15,1,E
Soesterberg Air Base,Soesterberg,Netherlands,UTC,52.1273002625,5.27618980408,66,1,E
Twente Airport,Enschede,Netherlands,ENS,52.275833,6.889167,114,1,E
Valkenburg Naval Air Base,Valkenburg,Netherlands,LID,52.1660995483,4.41794013977,1,1,E
Woensdrecht Air Base,Woensdrecht,Netherlands,WOE,51.4491,4.34203,63,1,E
Cork Airport,Cork,Ireland,ORK,51.84130096435547,-8.491109848022461,502,0,E
Galway Airport,Galway,Ireland,GWY,53.30020141601562,-8.941590309143066,81,0,E
Dublin Airport,Dublin,Ireland,DUB,53.421299,-6.27007,242,0,E
Ireland West Knock Airport,Connaught,Ireland,NOC,53.9103012084961,-8.818490028381348,665,0,E
Kerry Airport,Kerry,Ireland,KIR,52.18090057373047,-9.52377986907959,112,0,E
Shannon Airport,Shannon,Ireland,SNN,52.702,-8.92482,46,0,E
Sligo Airport,Sligo,Ireland,SXL,54.280200958252,-8.599209785461401,11,0,E
Waterford Airport,Waterford,Ireland,WAT,52.18719863891602,-7.086959838867188,119,0,E
Aarhus Airport,Aarhus,Denmark,AAR,56.2999992371,10.619000434899998,82,1,E
Billund Airport,Billund,Denmark,BLL,55.7402992249,9.15178012848,247,1,E
Copenhagen Kastrup Airport,Copenhagen,Denmark,CPH,55.617900848389,12.656000137328999,17,1,E
Esbjerg Airport,Esbjerg,Denmark,EBJ,55.525902,8.5534,97,1,E
Karup Airport,Karup,Denmark,KRP,56.29750061035156,9.124629974365234,170,1,E
Læsø Airport,Laeso,Denmark,BYR,57.277198791503906,11.000100135803224,25,1,E
Lolland Falster Maribo Airport,Maribo,Denmark,MRW,54.699298999999996,11.4401,16,1,E
Odense Airport,Odense,Denmark,ODE,55.47669982910156,10.330900192260742,56,1,E
Copenhagen Roskilde Airport,Copenhagen,Denmark,RKE,55.58560180664063,12.131400108337402,146,1,E
Bornholm Airport,Ronne,Denmark,RNN,55.06330108642578,14.759599685668945,52,1,E
Sønderborg Airport,Soenderborg,Denmark,SGD,54.96440124511719,9.791729927062988,24,1,E
Skrydstrup Air Base,Skrydstrup,Denmark,SKS,55.221047999999996,9.26702,141,1,E
Skive Airport,Skive,Denmark,SQW,56.55020141601562,9.172980308532717,74,1,E
Thisted Airport,Thisted,Denmark,TED,57.06880187988281,8.705220222473145,23,1,E
Stauning Airport,Stauning,Denmark,STA,55.9901008605957,8.353910446166992,17,1,E
Aalborg Airport,Aalborg,Denmark,AAL,57.092758913800004,9.84924316406,10,1,E
Luxembourg-Findel International Airport,Luxemburg,Luxembourg,LUX,49.6233333,6.204444400000001,1234,1,E
Ålesund Airport,Alesund,Norway,AES,62.5625,6.119699954986572,69,1,E
Andøya Airport,Andoya,Norway,ANX,69.292503356934,16.144199371338,43,1,E
Alta Airport,Alta,Norway,ALF,69.976097106934,23.371700286865,9,1,E
Brønnøysund Airport,Bronnoysund,Norway,BNN,65.461097717285,12.217499732971001,25,1,E
Bodø Airport,Bodo,Norway,BOO,67.26920318603516,14.365300178527832,42,1,E
Bergen Airport Flesland,Bergen,Norway,BGO,60.29339981,5.218140125,170,1,E
Båtsfjord Airport,Batsfjord,Norway,BJF,70.60050201416,29.691400527954002,490,1,E
Kristiansand Airport,Kristiansand,Norway,KRS,58.204201,8.08537,57,1,E
Geilo Airport Dagali,Geilo,Norway,DLD,60.41730117797852,8.518349647521973,2618,1,E
Bardufoss Airport,Bardufoss,Norway,BDU,69.055801391602,18.540399551392,252,1,E
"Harstad/Narvik Airport, Evenes",Harstad/Narvik,Norway,EVE,68.491302490234,16.678100585938,84,1,E
Leirin Airport,Fagernes,Norway,VDB,61.015598297119,9.2880601882935,2697,1,E
Florø Airport,Floro,Norway,FRO,61.583599090576,5.0247201919556,37,1,E
Oslo Lufthavn,Oslo,Norway,OSL,60.121,11.0502,681,1,E
Haugesund Airport,Haugesund,Norway,HAU,59.34529876709001,5.208360195159901,86,1,E
Hasvik Airport,Hasvik,Norway,HAA,70.486701965332,22.139699935913,21,1,E
Kristiansund Airport (Kvernberget),Kristiansund,Norway,KSU,63.111801147461,7.8245201110839995,204,1,E
Kirkenes Airport (Høybuktmoen),Kirkenes,Norway,KKN,69.725799560547,29.891300201416,283,1,E
Lista Airport,Farsund,Norway,FAN,58.0994987487793,6.626049995422362,29,1,E
Molde Airport,Molde,Norway,MOL,62.744701385498,7.262499809265099,10,1,E
Mosjøen Airport (Kjærstad),Mosjoen,Norway,MJF,65.78399658203101,13.214900016785,237,1,E
Banak Airport,Lakselv,Norway,LKL,70.068801879883,24.973499298095998,25,1,E
Notodden Airport,Notodden,Norway,NTB,59.565701000000004,9.21222,63,1,E
Ørland Airport,Orland,Norway,OLA,63.69889831542969,9.604000091552734,28,1,E
Røros Airport,Roros,Norway,RRS,62.578399658203004,11.342300415039,2054,1,E
"Moss Airport, Rygge",Rygge,Norway,RYG,59.378817000000005,10.785439,174,1,E
Skien Airport,Skien,Norway,SKE,59.18500137329102,9.566940307617188,463,1,E
Stord Airport,Stord,Norway,SRP,59.79190063476562,5.340849876403809,160,1,E
Sandnessjøen Airport (Stokka),Sandnessjoen,Norway,SSJ,65.95680236816399,12.468899726868,56,1,E
"Tromsø Airport,",Tromso,Norway,TOS,69.68329620361328,18.91889953613281,31,1,E
"Sandefjord Airport, Torp",Sandefjord,Norway,TRF,59.1866989136,10.258600235,286,1,E
Trondheim Airport Værnes,Trondheim,Norway,TRD,63.45780179999999,10.9239998,56,1,E
Stavanger Airport Sola,Stavanger,Norway,SVG,58.876701354,5.637780189500001,29,1,E
Gdańsk Lech Wałęsa Airport,Gdansk,Poland,GDN,54.377601623535156,18.46619987487793,489,1,E
Kraków John Paul II International Airport,Krakow,Poland,KRK,50.077702,19.7848,791,1,E
Katowice International Airport,Katowice,Poland,KTW,50.4743,19.08,995,1,E
Poznań-Ławica Airport,Poznan,Poland,POZ,52.4210014343,16.8262996674,308,1,E
Rzeszów-Jasionka Airport,Rzeszow,Poland,RZE,50.1100006104,22.018999099699997,675,1,E
"Szczecin-Goleniów ""Solidarność"" Airport",Szczecin,Poland,SZZ,53.584701538100006,14.902199745199999,154,1,E
Redzikowo Air Base,Slupsk,Poland,OSP,54.47890090942383,17.107500076293945,217,1,E
Warsaw Chopin Airport,Warsaw,Poland,WAW,52.1656990051,20.9671001434,362,1,E
Copernicus Wrocław Airport,Wroclaw,Poland,WRO,51.10269927979999,16.885799408,404,1,E
Zielona Góra-Babimost Airport,Zielona Gora,Poland,IEG,52.1385002136,15.7986001968,194,1,E
Ronneby Airport,Ronneby,Sweden,RNB,56.266700744629,15.265000343322999,191,1,E
Gothenburg-Landvetter Airport,Gothenborg,Sweden,GOT,57.662799835205,12.279800415039,506,1,E
Jönköping Airport,Joenkoeping,Sweden,JKG,57.75759887695313,14.068699836730955,741,1,E
Lidköping-Hovby Airport,Lidkoping,Sweden,LDK,58.4655,13.1744,200,1,E
Gothenburg City Airport,Gothenborg,Sweden,GSE,57.7747,11.8704,59,1,E
Skövde Airport,Skovde,Sweden,KVB,58.45640182495117,13.972700119018555,324,1,E
Trollhättan-Vänersborg Airport,Trollhattan,Sweden,THN,58.31809997558594,12.345000267028807,137,1,E
Karlskoga Airport,Karlskoga,Sweden,KSK,59.34590148925781,14.49590015411377,400,1,E
Mora Airport,Mora,Sweden,MXX,60.957901,14.5114,634,1,E
Stockholm Skavsta Airport,Stockholm,Sweden,NYO,58.78860092163086,16.912200927734375,140,1,E
Kristianstad Airport,Kristianstad,Sweden,KID,55.92169952392578,14.08549976348877,76,1,E
Oskarshamn Airport,Oskarshamn,Sweden,OSK,57.350497999999995,16.497999,96,1,E
Kalmar Airport,Kalkmar,Sweden,KLR,56.68550109863281,16.287599563598633,17,1,E
Malmö Sturup Airport,Malmoe,Sweden,MMX,55.53630536399999,13.3761978149,236,1,E
Halmstad Airport,Halmstad,Sweden,HAD,56.69110107421875,12.820199966430664,101,1,E
Växjö Kronoberg Airport,Vaxjo,Sweden,VXO,56.929100036621094,14.727999687194824,610,1,E
Sveg Airport,Sveg,Sweden,EVG,62.04779815673828,14.422900199890135,1178,1,E
Gällivare Airport,Gallivare,Sweden,GEV,67.13240051269531,20.814599990844727,1027,1,E
Hudiksvall Airport,Hudiksvall,Sweden,HUV,61.7681007385,17.0806999207,95,1,E
Kramfors Sollefteå Airport,Kramfors,Sweden,KRF,63.04859924316406,17.76889991760254,34,1,E
Lycksele Airport,Lycksele,Sweden,LYC,64.54830169677734,18.71619987487793,705,1,E
Sundsvall-Härnösand Airport,Sundsvall,Sweden,SDL,62.528099060058594,17.443899154663086,16,1,E
Örnsköldsvik Airport,Ornskoldsvik,Sweden,OER,63.40829849243164,18.989999771118164,354,1,E
Kiruna Airport,Kiruna,Sweden,KRN,67.821998596191,20.336799621582,1508,1,E
Skellefteå Airport,Skelleftea,Sweden,SFT,64.62480163574219,21.076900482177734,157,1,E
Umeå Airport,Umea,Sweden,UME,63.791801452636996,20.282800674438,24,1,E
Vilhelmina Airport,Vilhelmina,Sweden,VHM,64.5791015625,16.833599090576172,1140,1,E
Arvidsjaur Airport,Arvidsjaur,Sweden,AJR,65.59030151367189,19.28190040588379,1245,1,E
Örebro Airport,Orebro,Sweden,ORB,59.22370147705078,15.038000106811525,188,1,E
Stockholm Västerås Airport,Vasteras,Sweden,VST,59.58940124511719,16.633600234985348,21,1,E
Luleå Airport,Lulea,Sweden,LLA,65.543800354004,22.121999740601,65,1,E
Stockholm-Arlanda Airport,Stockholm,Sweden,ARN,59.651901245116996,17.918600082397,137,1,E
Stockholm-Bromma Airport,Stockholm,Sweden,BMA,59.35440063476562,17.941699981689453,47,1,E
Borlange Airport,Borlange,Sweden,BLE,60.42200088500977,15.515199661254885,503,1,E
Hultsfred Airport,Hultsfred,Sweden,HLF,57.525799,15.8233,366,1,E
Gävle Sandviken Airport,Gavle,Sweden,GVX,60.593299865722656,16.951400756835938,224,1,E
Linköping City Airport,Linkoeping,Sweden,LPI,58.406200408900006,15.6805000305,172,1,E
Norrköping Airport,Norrkoeping,Sweden,NRK,58.58629989624024,16.250600814819336,32,1,E
Eskilstuna Airport,Eskilstuna,Sweden,EKT,59.35110092163086,16.70840072631836,139,1,E
Visby Airport,Visby,Sweden,VBY,57.662799835205,18.346200942993,164,1,E
Spangdahlem Air Base,Spangdahlem,Germany,SPM,49.9726982117,6.6925001144400005,1197,1,E
Ramstein Air Base,Ramstein,Germany,RMS,49.4369010925293,7.600279808044434,776,1,E
[Duplicate] Giebelstadt Army Air Field,Giebelstadt,Germany,GHF,49.648101806599996,9.966489791870002,980,1,E
Celle Airport,Celle,Germany,ZCN,52.59120178222656,10.022100448608398,129,1,E
Fritzlar Airport,Fritzlar,Germany,FRZ,51.1146,9.286,1345,1,E
Hanau Army Air Field,Hanau,Germany,ZNF,50.169201,8.96159,368,1,E
Flugplatz Kitzingen,Kitzingen,Germany,KZG,49.743099,10.2006,689,1,E
Nordholz Naval Airbase,Nordholz,Germany,FCN,53.767700195299994,8.658499717709999,74,1,E
Geilenkirchen Air Base,Geilenkirchen,Germany,GKE,50.9608,6.04242,296,1,E
Rostock-Laage Airport,Laage,Germany,RLG,53.9182014465,12.2783002853,138,1,E
Schleswig Air Base,Schleswig,Germany,WBG,54.459301,9.51633,70,1,E
Wiesbaden Army Airfield,Wiesbaden,Germany,WIE,50.04980087280274,8.325400352478027,461,1,E
Fürstenfeldbruck Air Base,Fuerstenfeldbruck,Germany,FEL,48.205555,11.266944,1703,1,E
Ingolstadt Manching Airport,Ingolstadt,Germany,IGS,48.7156982421875,11.534000396728516,1202,1,E
Gütersloh Air Base,Guetersloh,Germany,GUT,51.922798,8.30633,236,1,E
Melilla Airport,Melilla,Spain,MLN,35.279800415,-2.9562599658999997,156,1,E
Tirana International Airport Mother Teresa,Tirana,Albania,TIA,41.4146995544,19.7206001282,126,1,E
Burgas Airport,Bourgas,Bulgaria,BOJ,42.56959915161133,27.515199661254886,135,2,E
Gorna Oryahovitsa Airport,Gorna Orechovica,Bulgaria,GOZ,43.15140151977539,25.712900161743164,285,2,E
Plovdiv International Airport,Plovdiv,Bulgaria,PDV,42.067799,24.8508,597,2,E
Sofia Airport,Sofia,Bulgaria,SOF,42.696693420410156,23.411436080932614,1742,2,E
Stara Zagora Airport,Stara Zagora,Bulgaria,SZR,42.3766667,25.655,558,2,E
Varna Airport,Varna,Bulgaria,VAR,43.232101,27.8251,230,2,E
RAF Akrotiri,Akrotiri,Cyprus,AKT,34.590401,32.9879,76,0,E
Dubrovnik Airport,Dubrovnik,Croatia,DBV,42.5614013671875,18.268199920654297,527,1,E
Osijek Airport,Osijek,Croatia,OSI,45.46269989013672,18.810199737548828,290,1,E
Pula Airport,Pula,Croatia,PUY,44.89350128173828,13.922200202941895,274,1,E
Rijeka Airport,Rijeka,Croatia,RJK,45.21689987182617,14.570300102233887,278,1,E
Split Airport,Split,Croatia,SPU,43.53889846801758,16.29800033569336,79,1,E
Zagreb Airport,Zagreb,Croatia,ZAG,45.742900848400005,16.0687999725,353,1,E
Zadar Airport,Zadar,Croatia,ZAD,44.108299,15.3467,289,1,E
Albacete-Los Llanos Airport,Albacete,Spain,ABC,38.9485015869,-1.86352002621,2302,1,E
Alicante International Airport,Alicante,Spain,ALC,38.28219985961914,-0.5581560134887695,142,1,E
Almería International Airport,Almeria,Spain,LEI,36.84389877319336,-2.3701000213623047,70,1,E
Asturias Airport,Aviles,Spain,OVD,43.5635986328125,-6.0346198081970215,416,1,E
Córdoba Airport,Cordoba,Spain,ODB,37.84199905395508,-4.848879814147949,297,1,E
Bilbao Airport,Bilbao,Spain,BIO,43.30110168457031,-2.9106099605560303,138,1,E
Barcelona International Airport,Barcelona,Spain,BCN,41.2971,2.0784599999999998,12,1,E
Badajoz Airport,Badajoz,Spain,BJZ,38.891300201416016,-6.8213300704956055,609,1,E
A Coruña Airport,La Coruna,Spain,LCG,43.302101,-8.37726,326,1,E
Girona Airport,Gerona,Spain,GRO,41.901000976999995,2.7605500221,468,1,E
Federico Garcia Lorca Airport,Granada,Spain,GRX,37.18870162963867,-3.777359962463379,1860,1,E
Ibiza Airport,Ibiza,Spain,IBZ,38.8728981018,1.3731199502899998,24,1,E
Jerez Airport,Jerez,Spain,XRY,36.74459838867188,-6.060110092163086,93,1,E
San Javier Airport,Murcia,Spain,MJV,37.775001525878906,-0.8123890161514282,11,1,E
Adolfo Suárez Madrid–Barajas Airport,Madrid,Spain,MAD,40.471926,-3.56264,1998,1,E
Málaga Airport,Malaga,Spain,AGP,36.67490005493164,-4.499110221862793,53,1,E
Menorca Airport,Menorca,Spain,MAH,39.86259841918945,4.2186498641967765,302,1,E
Moron Air Base,Sevilla,Spain,OZP,37.17490005493164,-5.6159400939941415,285,1,E
Pamplona Airport,Pamplona,Spain,PNA,42.77000045776367,-1.6463299989700315,1504,1,E
Reus Air Base,Reus,Spain,REU,41.14739990234375,1.1671700477600098,233,1,E
Rota Naval Station Airport,Rota,Spain,ROZ,36.645198822,-6.34946012497,86,1,E
Salamanca Airport,Salamanca,Spain,SLM,40.95209884643555,-5.501989841461182,2595,1,E
San Sebastian Airport,San Sebastian,Spain,EAS,43.35649871826172,-1.7906099557876587,16,1,E
Santiago de Compostela Airport,Santiago,Spain,SCQ,42.89630126953125,-8.415140151977539,1213,1,E
Pirineus - la Seu d'Urgel Airport,Seo De Urgel,Spain,LEU,42.3386,1.40917,2625,1,E
Torrejón Airport,Madrid,Spain,TOJ,40.49670028686523,-3.4458699226379395,2026,1,E
Valencia Airport,Valencia,Spain,VLC,39.4893,-0.481625,240,1,E
Valladolid Airport,Valladolid,Spain,VLL,41.7061004639,-4.85194015503,2776,1,E
Vitoria/Foronda Airport,Vitoria,Spain,VIT,42.8828010559082,-2.7244699001312256,1682,1,E
Vigo Airport,Vigo,Spain,VGO,42.2318000793457,-8.62677001953125,856,1,E
Santander Airport,Santander,Spain,SDR,43.427101135253906,-3.82000994682312,16,1,E
Zaragoza Air Base,Zaragoza,Spain,ZAZ,41.66619873046875,-1.0415500402450562,863,1,E
Sevilla Airport,Sevilla,Spain,SVQ,37.41799926757813,-5.8931097984313965,112,1,E
Calais-Dunkerque Airport,Calais,France,CQF,50.96210098266602,1.954759955406189,12,1,E
Albert-Bray Airport,Albert,France,BYF,49.9715003967,2.6976599693299996,364,1,E
Le Touquet-Côte d'Opale Airport,Le Tourquet,France,LTQ,50.51739883422852,1.6205899715423584,36,1,E
Valenciennes-Denain Airport,Valenciennes,France,XVS,50.32580184936523,3.4612600803375244,177,1,E
Agen-La Garenne Airport,Agen,France,AGF,44.17470169067383,0.5905560255050659,204,1,E
Bordeaux-Mérignac Airport,Bordeaux,France,BOD,44.8283004761,-0.7155560255050001,162,1,E
Bergerac-Roumanière Airport,Bergerac,France,EGC,44.82529830932617,0.5186110138893127,171,1,E
Cognac-Châteaubernard (BA 709) Air Base,Cognac,France,CNG,45.65829849243164,-0.3174999952316284,102,1,E
Poitiers-Biard Airport,Poitiers,France,PIS,46.58769989013672,0.30666598677635193,423,1,E
Montluçon-Guéret Airport,Montlucon-gueret,France,MCU,46.22259902954102,2.3639600276947017,1497,1,E
Limoges Airport,Limoges,France,LIG,45.86280059814453,1.1794400215148926,1300,1,E
Niort-Souché Airport,Niort,France,NIT,46.313477,-0.394529,203,1,E
Toulouse-Blagnac Airport,Toulouse,France,TLS,43.629101,1.36382,499,1,E
Pau Pyrénées Airport,Pau,France,PUF,43.38000106811523,-0.4186109900474548,616,1,E
Tarbes-Lourdes-Pyrénées Airport,Tarbes,France,LDE,43.1786994934082,-0.006438999902456999,1260,1,E
Angoulême-Brie-Champniers Airport,Angouleme,France,ANG,45.72919845581055,0.22145600616931915,436,1,E
Brive Souillac Airport,Brive,France,BVE,45.039722,1.4855559999999999,1016,1,E
Périgueux-Bassillac Airport,Perigueux,France,PGX,45.19810104370117,0.815555989742279,328,1,E
Biarritz-Anglet-Bayonne Airport,Biarritz-bayonne,France,BIQ,43.4683333,-1.5311111000000002,245,1,E
Cahors-Lalbenque Airport,Cahors,France,ZAO,44.35139846801758,1.4752800464630127,912,1,E
Albi-Le Séquestre Airport,Albi,France,LBI,43.91389846801758,2.1130599975585938,564,1,E
Castres-Mazamet Airport,Castres,France,DCM,43.55630111694336,2.289180040359497,788,1,E
Rodez-Marcillac Airport,Rodez,France,RDZ,44.407901763916016,2.4826700687408447,1910,1,E
Royan-Médis Airport,Royan,France,RYN,45.62810134887695,-0.9725000262260436,72,1,E
Montauban Airport,Montauban,France,XMW,44.02569961547852,1.3780399560928345,351,1,E
Rochefort-Saint-Agnant (BA 721) Airport,Rochefort,France,RCO,45.88779830932617,-0.9830560088157654,60,1,E
Colmar-Houssen Airport,Colmar,France,CMR,48.109901428222656,7.359010219573975,628,1,E
Dole-Tavaux Airport,Dole,France,DLE,47.042685999999996,5.4350629999999995,645,1,E
Aubenas-Ardèche Méridional Airport,Aubenas-vals-lanas,France,OBS,44.544203,4.372192,923,1,E
Le Puy-Loudes Airport,Le Puy,France,LPY,45.0806999206543,3.7628901004791264,2731,1,E
Metz-Nancy-Lorraine Airport,Metz,France,ETZ,48.9821014404,6.25131988525,870,1,E
Bastia-Poretta Airport,Bastia,France,BIA,42.55270004272461,9.48373031616211,26,1,E
Calvi-Sainte-Catherine Airport,Calvi,France,CLY,42.52444439999999,8.793055599999999,209,1,E
Figari Sud-Corse Airport,Figari,France,FSC,41.5005989074707,9.097780227661133,87,1,E
Ajaccio-Napoléon Bonaparte Airport,Ajaccio,France,AJA,41.92359924316406,8.8029203414917,18,1,E
Propriano Airport,Propriano,France,PRP,41.66059875488281,8.889749526977539,13,1,E
Solenzara (BA 126) Air Base,Solenzara,France,SOZ,41.924400329589844,9.406000137329102,28,1,E
Auxerre-Branches Airport,Auxerre,France,AUF,47.85020065307617,3.4971098899841313,523,1,E
Chambéry-Savoie Airport,Chambery,France,CMF,45.638099670410156,5.880229949951173,779,1,E
Clermont-Ferrand Auvergne Airport,Clermont-Ferrand,France,CFE,45.786701202399996,3.1691699027999998,1090,1,E
Bourges Airport,Bourges,France,BOU,47.05810165405274,2.3702800273895264,529,1,E
Annemasse Airport,Annemasse,France,QNJ,46.1920013428,6.268390178680002,1620,1,E
Lyon Saint-Exupéry Airport,Lyon,France,LYS,45.725556,5.081111,821,1,E
Saint-Yan Airport,St.-yan,France,SYT,46.412498474121094,4.0132598876953125,796,1,E
Roanne-Renaison Airport,Roanne,France,RNE,46.05830001831055,4.001389980316162,1106,1,E
Annecy-Haute-Savoie-Mont Blanc Airport,Annecy,France,NCY,45.930833299999996,6.106388900000001,1521,1,E
Grenoble-Isère Airport,Grenoble,France,GNB,45.36289978027344,5.329370021820068,1302,1,E
Valence-Chabeuil Airport,Valence,France,VAF,44.9216,4.9699,525,1,E
Vichy-Charmeil Airport,Vichy,France,VHY,46.169700622558594,3.4037399291992188,817,1,E
Aurillac Airport,Aurillac,France,AUR,44.89139938354492,2.4219400882720947,2096,1,E
"Châteauroux-Déols ""Marcel Dassault"" Airport",Chateauroux,France,CHR,46.860278,1.721111,529,1,E
Lyon-Bron Airport,Lyon,France,LYN,45.72719955444336,4.944270133972168,659,1,E
Cannes-Mandelieu Airport,Cannes,France,CEQ,43.542,6.95348,13,1,E
Saint-Étienne-Bouthéon Airport,St-Etienne,France,EBU,45.54059982299805,4.2963900566101065,1325,1,E
Carcassonne Airport,Carcassonne,France,CCF,43.21599960327149,2.3063199520111084,433,1,E
Marseille Provence Airport,Marseille,France,MRS,43.439271921999996,5.22142410278,74,1,E
Nice-Côte d'Azur Airport,Nice,France,NCE,43.658401489300005,7.215869903560001,12,1,E
Orange-Caritat (BA 115) Air Base,Orange,France,XOG,44.14049911499024,4.866720199584961,197,1,E
Perpignan-Rivesaltes (Llabanère) Airport,Perpignan,France,PGF,42.74039840698242,2.8706700801849365,144,1,E
Le Castellet Airport,Le Castellet,France,CTT,43.25249862670898,5.785190105438232,1391,1,E
Montpellier-Méditerranée Airport,Montpellier,France,MPL,43.57619857788086,3.96301007270813,17,1,E
Béziers-Vias Airport,Beziers,France,BZR,43.32350158691406,3.353899955749512,56,1,E
Avignon-Caumont Airport,Avignon,France,AVN,43.90729904174805,4.901830196380615,124,1,E
Mende-Brenoux Airfield,Mende,France,MEN,44.502102,3.5328199999999996,3362,1,E
Paris Beauvais Tillé Airport,Beauvais,France,BVA,49.45439910888672,2.1127800941467285,359,1,E
Évreux-Fauville (BA 105) Air Base,Evreux,France,EVX,49.02870178222656,1.219859957695007,464,1,E
Le Havre Octeville Airport,Le Havre,France,LEH,49.53390121459961,0.08805599808692932,313,1,E
Abbeville,Abbeville,France,XAB,50.143501,1.831891,220,1,E
Orléans-Bricy (BA 123) Air Base,Orleans,France,ORE,47.9878005981,1.7605600357100002,412,1,E
Châlons-Vatry Airport,Chalons,France,XCR,48.7733333333,4.206111111,587,1,E
Rouen Airport,Rouen,France,URO,49.38420104980469,1.1748000383377075,512,1,E
Tours-Val-de-Loire Airport,Tours,France,TUF,47.4322013855,0.727605998516,357,1,E
Cholet Le Pontreau Airport,Cholet,France,CET,47.08209991455078,-0.8770639896392822,443,1,E
Laval-Entrammes Airport,Laval,France,LVA,48.03139877319336,-0.7429860234260559,330,1,E
Paris-Le Bourget Airport,Paris,France,LBG,48.969398498535156,2.441390037536621,218,1,E
Creil Air Base,Creil,France,CSF,49.253501892089844,2.5191400051116943,291,1,E
Charles de Gaulle International Airport,Paris,France,CDG,49.012798,2.55,392,1,E
Toussus-le-Noble Airport,Toussous-le-noble,France,TNF,48.75189971923828,2.1061899662017822,538,1,E
Paris-Orly Airport,Paris,France,ORY,48.7233333,2.3794444,291,1,E
Pontoise - Cormeilles-en-Vexin Airport,Pontoise,France,POX,49.096667,2.040833,325,1,E
Villacoublay-Vélizy (BA 107) Air Base,Villacoublay,France,VIY,48.7741667,2.1916667000000003,584,1,E
Nevers-Fourchambault Airport,Nevers,France,NVS,47.002601623535156,3.1133298873901367,602,1,E
Maubeuge-Élesmes Airport,Maubeuge,France,XME,50.31050109863281,4.0331201553344735,452,1,E
Lille-Lesquin Airport,Lille,France,LIL,50.563332,3.0868860000000002,157,1,E
Merville-Calonne Airport,Merville,France,HZB,50.61840057373047,2.642240047454834,61,1,E
Charleville-Mézières Airport,Charleville,France,XCZ,49.78390121459961,4.647079944610597,492,1,E
Brest Bretagne Airport,Brest,France,BES,48.4478988647461,-4.418540000915527,325,1,E
Cherbourg-Maupertus Airport,Cherbourg,France,CER,49.65010070800781,-1.4702800512313845,459,1,E
Dinard-Pleurtuit-Saint-Malo Airport,Dinard,France,DNR,48.58769989013672,-2.0799601078033447,219,1,E
La Baule-Escoublac Airport,La Baule,France,LBY,47.28939819335938,-2.346390008926392,105,1,E
Granville Airport,Granville,France,GFR,48.88309860229492,-1.564170002937317,45,1,E
Deauville-Saint-Gatien Airport,Deauville,France,DOL,49.3652992249,0.154305994511,479,1,E
Lorient South Brittany (Bretagne Sud) Airport,Lorient,France,LRT,47.76060104370117,-3.440000057220459,160,1,E
La Roche-sur-Yon Airport,La Roche-sur-yon,France,EDM,46.70190048217773,-1.3786300420761108,299,1,E
Landivisiau Air Base,Landivisiau,France,LDV,48.53030014038086,-4.151639938354491,348,1,E
Caen-Carpiquet Airport,Caen,France,CFR,49.173301696777344,-0.44999998807907104,256,1,E
Le Mans-Arnage Airport,Le Mans,France,LME,47.94860076904297,0.201666995882988,194,1,E
Rennes-Saint-Jacques Airport,Rennes,France,RNS,48.0694999695,-1.73478996754,124,1,E
Lannion-Côte de Granit Airport,Lannion,France,LAI,48.754397999999995,-3.47166,290,1,E
Quimper-Cornouaille Airport,Quimper,France,UIP,47.974998474121094,-4.167789936065674,297,1,E
Nantes Atlantique Airport,Nantes,France,NTE,47.15319824220001,-1.61073005199,90,1,E
Saint-Brieuc-Armor Airport,St.-brieuc Armor,France,SBK,48.5378,-2.8544400000000003,453,1,E
Morlaix-Ploujean Airport,Morlaix,France,MXN,48.6031990051,-3.81577992439,272,1,E
Vannes-Meucon Airport,Vannes,France,VNE,47.72330093383789,-2.718559980392456,446,1,E
Saint-Nazaire-Montoir Airport,St.-nazaire,France,SNR,47.3105556,-2.1566667,13,1,E
EuroAirport Basel-Mulhouse-Freiburg Airport,Mulhouse,France,BSL,47.59,7.5291667,885,1,E
Dijon-Bourgogne Airport,Dijon,France,DIJ,47.268902000000004,5.09,726,1,E
Metz-Frescaty (BA 128) Air Base,Metz,France,MZM,49.07170104980469,6.131669998168945,629,1,E
Épinal-Mirecourt Airport,Epinal,France,EPL,48.325001,6.06998,1084,1,E
Nancy-Essey Airport,Nancy,France,ENC,48.692100524902344,6.230460166931152,751,1,E
Reims-Champagne (BA 112) Air Base,Reims,France,RHE,49.310001,4.05,312,1,E
Strasbourg Airport,Strasbourg,France,SXB,48.53829956054688,7.628230094909668,505,1,E
Toulon-Hyères Airport,Hyeres,France,TLN,43.0973014832,6.14602994919,7,1,E
Nîmes-Arles-Camargue Airport,Nimes,France,FNI,43.75740051269531,4.4163498878479,309,1,E
Andravida Air Base,Andravida,Greece,PYR,37.9207,21.292601,55,2,E
Agrinion Air Base,Agrinion,Greece,AGQ,38.602001,21.351200100000003,154,2,E
Dimokritos Airport,Alexandroupolis,Greece,AXD,40.855899810791016,25.956300735473636,24,2,E
Nea Anchialos Airport,Nea Anghialos,Greece,VOL,39.21960067749024,22.794300079345703,83,2,E
Chios Island National Airport,Chios,Greece,JKH,38.34320068359375,26.14060020446777,15,2,E
Ioannina Airport,Ioannina,Greece,IOA,39.6963996887207,20.82250022888184,1558,2,E
Heraklion International Nikos Kazantzakis Airport,Heraklion,Greece,HER,35.3396987915,25.1802997589,115,2,E
Kastoria National Airport,Kastoria,Greece,KSO,40.4463005066,21.282199859600002,2167,2,E
Kithira Airport,Kithira,Greece,KIT,36.2742996216,23.0170001984,1045,2,E
Kefallinia Airport,Keffallinia,Greece,EFL,38.12009811401367,20.5004997253418,59,2,E
Kalamata Airport,Kalamata,Greece,KLX,37.06829833984375,22.02549934387207,26,2,E
Kos Airport,Kos,Greece,KGS,36.79330062866211,27.09169960021973,412,2,E
Karpathos Airport,Karpathos,Greece,AOK,35.4213981628418,27.145999908447266,66,2,E
Ioannis Kapodistrias International Airport,Kerkyra/corfu,Greece,CFU,39.601898193359375,19.911699295043945,6,2,E
Kasos Airport,Kasos,Greece,KSJ,35.4213981628,26.909999847399998,35,2,E
Alexander the Great International Airport,Kavala,Greece,KVA,40.91329956054688,24.619199752807614,18,2,E
Filippos Airport,Kozani,Greece,KZI,40.28609848022461,21.84079933166504,2059,2,E
Leros Airport,Leros,Greece,LRS,37.184898,26.800301,39,2,E
Limnos Airport,Limnos,Greece,LXS,39.917098999000004,25.236299514799995,14,2,E
Larisa Airport,Larissa,Greece,LRA,39.650253,22.4655,241,2,E
Mikonos Airport,Mykonos,Greece,JMK,37.43510055541992,25.348100662231445,405,2,E
Mytilene International Airport,Mytilini,Greece,MJT,39.0567016602,26.5983009338,60,2,E
Aktion National Airport,Preveza,Greece,PVK,38.92549896240234,20.765300750732425,11,2,E
Diagoras Airport,Rhodos,Greece,RHO,36.40539932250977,28.086200714111328,17,2,E
Araxos Airport,Patras,Greece,GPA,38.1511,21.4256,46,2,E
Chania International Airport,Chania,Greece,CHQ,35.531700134277344,24.149700164794922,490,2,E
Skiathos Island National Airport,Skiathos,Greece,JSI,39.177101135253906,23.503700256347656,54,2,E
Samos Airport,Samos,Greece,SMI,37.68999862670898,26.911699295043945,19,2,E
Sparti Airport,Sparti,Greece,SPJ,36.973899841308594,22.52630043029785,500,2,E
Santorini Airport,Thira,Greece,JTR,36.39920043945313,25.47929954528809,127,2,E
Sitia Airport,Sitia,Greece,JSH,35.21609878540039,26.101299285888672,376,2,E
Skiros Airport,Skiros,Greece,SKU,38.967601776100004,24.4871997833,44,2,E
Thessaloniki Macedonia International Airport,Thessaloniki,Greece,SKG,40.51969909667969,22.97089958190918,22,2,E
"Zakynthos International Airport ""Dionysios Solomos""",Zakynthos,Greece,ZTH,37.7509,20.8843,15,2,E
Budapest Liszt Ferenc International Airport,Budapest,Hungary,BUD,47.429759999999995,19.261093,495,1,E
Debrecen International Airport,Debrecen,Hungary,DEB,47.48889923095703,21.61529922485352,359,1,E
Crotone Airport,Crotone,Italy,CRV,38.9972,17.0802,522,1,E
Bari Karol Wojtyła Airport,Bari,Italy,BRI,41.138901000000004,16.760599,177,1,E
"Foggia ""Gino Lisa"" Airport",Foggia,Italy,FOG,41.432899,15.535,265,1,E
"Taranto-Grottaglie ""Marcello Arlotta"" Airport",Grottaglie,Italy,TAR,40.517502,17.4032,215,1,E
Lecce Galatina Air Base,Lecce,Italy,LCC,40.239201,18.133301,156,1,E
Pescara International Airport,Pescara,Italy,PSR,42.431702,14.1811,48,1,E
Brindisi – Salento Airport,Brindisi,Italy,BDS,40.6576,17.947001,47,1,E
Lamezia Terme Airport,Lamezia,Italy,SUF,38.905398999999996,16.2423,39,1,E
Catania-Fontanarossa Airport,Catania,Italy,CTA,37.466801000000004,15.0664,39,1,E
Lampedusa Airport,Lampedusa,Italy,LMP,35.497898,12.6181,70,1,E
Pantelleria Airport,Pantelleria,Italy,PNL,36.816502,11.9689,628,1,E
Falcone–Borsellino Airport,Palermo,Italy,PMO,38.175999,13.091,65,1,E
Reggio Calabria Airport,Reggio Calabria,Italy,REG,38.071201,15.6516,96,1,E
Vincenzo Florio Airport Trapani-Birgi,Trapani,Italy,TPS,37.9114,12.488,25,1,E
Sigonella Navy Air Base,Sigonella,Italy,NSY,37.401699,14.9224,79,1,E
Alghero-Fertilia Airport,Alghero,Italy,AHO,40.632099,8.29077,87,1,E
Decimomannu Air Base,Decimomannu,Italy,DCI,39.354198,8.972480000000001,100,1,E
Cagliari Elmas Airport,Cagliari,Italy,CAG,39.251499,9.05428,13,1,E
Olbia Costa Smeralda Airport,Olbia,Italy,OLB,40.898701,9.51763,37,1,E
Tortolì Airport,Tortoli,Italy,TTB,39.9188,9.68298,23,1,E
Malpensa International Airport,Milano,Italy,MXP,45.6306,8.728110000000001,768,1,E
Il Caravaggio International Airport,Bergamo,Italy,BGY,45.673901,9.70417,782,1,E
Turin Airport,Torino,Italy,TRN,45.200802,7.64963,989,1,E
Villanova D'Albenga International Airport,Albenga,Italy,ALL,44.050598,8.12743,148,1,E
Genoa Cristoforo Colombo Airport,Genoa,Italy,GOA,44.4133,8.8375,13,1,E
Milano Linate Airport,Milan,Italy,LIN,45.445099,9.27674,353,1,E
Parma Airport,Parma,Italy,PMF,44.824501,10.2964,161,1,E
Cuneo International Airport,Cuneo,Italy,CUF,44.547001,7.62322,1267,1,E
Aviano Air Base,Aviano,Italy,AVB,46.031898,12.596503,410,1,E
Bolzano Airport,Bolzano,Italy,BZO,46.460201,11.3264,789,1,E
Bologna Guglielmo Marconi Airport,Bologna,Italy,BLQ,44.5354,11.2887,123,1,E
Treviso-Sant'Angelo Airport,Treviso,Italy,TSF,45.648399,12.1944,59,1,E
Forlì Airport,Forli,Italy,FRL,44.194801,12.0701,97,1,E
Brescia Airport,Brescia,Italy,VBS,45.428902,10.3306,355,1,E
Trieste–Friuli Venezia Giulia Airport,Ronchi De Legionari,Italy,TRS,45.827498999999996,13.4722,39,1,E
Federico Fellini International Airport,Rimini,Italy,RMI,44.020302,12.6117,40,1,E
Vicenza Airport,Vicenza,Italy,VIC,45.573399,11.5295,128,1,E
Padova Airport,Padova,Italy,QPA,45.395802,11.8479,44,1,E
Verona Villafranca Airport,Villafranca,Italy,VRN,45.395699,10.8885,239,1,E
Venice Marco Polo Airport,Venice,Italy,VCE,45.505299,12.3519,7,1,E
Siena-Ampugnano Airport,Siena,Italy,SAY,43.256302000000005,11.255,634,1,E
Ciampino–G. B. Pastine International Airport,Rome,Italy,CIA,41.7994,12.5949,427,1,E
Leonardo da Vinci–Fiumicino Airport,Rome,Italy,FCO,41.800277799999996,12.238888900000001,13,1,E
Marina Di Campo Airport,Marina Di Campo,Italy,EBA,42.7603,10.2394,31,1,E
Latina Air Base,Latina,Italy,QLT,41.5424,12.909,94,1,E
Naples International Airport,Naples,Italy,NAP,40.886002000000005,14.2908,294,1,E
Pisa International Airport,Pisa,Italy,PSA,43.683899,10.3927,6,1,E
Peretola Airport,Florence,Italy,FLR,43.810001,11.2051,142,1,E
Grosseto Air Base,Grosseto,Italy,GRS,42.759701,11.0719,17,1,E
Perugia San Francesco d'Assisi – Umbria International Airport,Perugia,Italy,PEG,43.095901,12.5132,697,1,E
Ljubljana Jože Pučnik Airport,Ljubljana,Slovenia,LJU,46.223701,14.4576,1273,1,E
Maribor Airport,Maribor,Slovenia,MBX,46.47990036010742,15.686100006103516,876,1,E
Portoroz Airport,Portoroz,Slovenia,POW,45.4734001159668,13.614999771118164,7,1,E
Kunovice Airport,Kunovice,Czech Republic,UHE,49.02939987182617,17.439699172973633,581,1,E
Karlovy Vary International Airport,Karlovy Vary,Czech Republic,KLV,50.20299911499024,12.914999961853027,1989,1,E
Ostrava Leos Janáček Airport,Ostrava,Czech Republic,OSR,49.6963005065918,18.111099243164066,844,1,E
Pardubice Airport,Pardubice,Czech Republic,PED,50.01340103149414,15.73859977722168,741,1,E
Přerov Air Base,Prerov,Czech Republic,PRV,49.42580032348633,17.404699325561527,676,1,E
Václav Havel Airport Prague,Prague,Czech Republic,PRG,50.1008,14.26,1247,1,E
Brno-Tuřany Airport,Brno,Czech Republic,BRQ,49.15129852294922,16.694400787353516,778,1,E
Vodochody Airport,Vodochody,Czech Republic,VOD,50.216599,14.3958,919,1,E
Malta International Airport,Malta,Malta,MLA,35.857498,14.4775,300,1,E
Graz Airport,Graz,Austria,GRZ,46.9911003112793,15.439599990844727,1115,1,E
Innsbruck Airport,Innsbruck,Austria,INN,47.260201,11.344000000000001,1907,1,E
Linz Hörsching Airport,Linz,Austria,LNZ,48.2332,14.1875,980,1,E
Salzburg Airport,Salzburg,Austria,SZG,47.793300628699996,13.0043001175,1411,1,E
Vienna International Airport,Vienna,Austria,VIE,48.110298156738004,16.569700241089002,600,1,E
Alverca Air Base,Alverca,Portugal,AVR,38.883301,-9.0301,11,0,E
Bragança Airport,Braganca,Portugal,BGC,41.8578,-6.70713,2241,0,E
Beja Airport / Airbase,Beja (madeira),Portugal,BYJ,38.078899,-7.9324,636,0,E
Braga Municipal Aerodrome,Braga,Portugal,BGZ,41.5871009827,-8.445139884949999,247,0,E
Cascais Airport,Cascais,Portugal,CAT,38.724998,-9.35523,325,0,E
Faro Airport,Faro,Portugal,FAO,37.014400482199996,-7.965909957889999,24,0,E
Monte Real Air Base,Monte Real,Portugal,QLR,39.828334999999996,-8.8875,187,0,E
Portimão Airport,Portimao,Portugal,PRM,37.1493,-8.583960000000001,5,0,E
Francisco de Sá Carneiro Airport,Porto,Portugal,OPO,41.248100280799996,-8.68138980865,228,0,E
Porto Santo Airport,Porto Santo,Portugal,PXO,33.073398590100005,-16.3500003815,341,0,E
Humberto Delgado Airport (Lisbon Portela Airport),Lisbon,Portugal,LIS,38.7813,-9.13592,374,0,E
Vila Real Airport,Vila Real,Portugal,VRL,41.2743,-7.72047,1805,0,E
Aerodromo Goncalves Lobato (Viseu Airport),Viseu,Portugal,VSE,40.725497999999995,-7.88899,2060,0,E
Mostar International Airport,Mostar,Bosnia and Herzegovina,OMO,43.282901763916016,17.84589958190918,156,1,E
Sarajevo International Airport,Sarajevo,Bosnia and Herzegovina,SJJ,43.82460021972656,18.331499099731445,1708,1,E
Arad International Airport,Arad,Romania,ARW,46.17660140991211,21.261999130249023,352,2,E
Bacău Airport,Bacau,Romania,BCM,46.52190017700195,26.91029930114746,607,2,E
Tautii Magheraus Airport,Baia Mare,Romania,BAY,47.65840148925781,23.46999931335449,605,2,E
Băneasa International Airport,Bucharest,Romania,BBU,44.50320053100586,26.10210037231445,297,2,E
Mihail Kogălniceanu International Airport,Constanta,Romania,CND,44.36220169067383,28.488300323486328,353,2,E
Cluj-Napoca International Airport,Cluj-napoca,Romania,CLJ,46.78519821166992,23.686199188232425,1036,2,E
Caransebeş Airport,Caransebes,Romania,CSB,45.41999816894531,22.253299713134766,866,2,E
Craiova Airport,Craiova,Romania,CRA,44.31809997558594,23.888599395751953,626,2,E
Iaşi Airport,Iasi,Romania,IAS,47.17850112915039,27.6205997467041,397,2,E
Oradea International Airport,Oradea,Romania,OMR,47.02529907226562,21.90250015258789,465,2,E
Henri Coandă International Airport,Bucharest,Romania,OTP,44.5711111,26.085,314,2,E
Sibiu International Airport,Sibiu,Romania,SBZ,45.78559875488281,24.09129905700684,1496,2,E
Satu Mare Airport,Satu Mare,Romania,SUJ,47.70330047607422,22.885700225830078,405,2,E
Suceava Stefan cel Mare Airport,Suceava,Romania,SCV,47.6875,26.35409927368164,1375,2,E
Tulcea Airport,Tulcea,Romania,TCE,45.0625,28.71430015563965,200,2,E
Transilvania Târgu Mureş International Airport,Tirgu Mures,Romania,TGM,46.46770095825195,24.41250038146973,963,2,E
Timişoara Traian Vuia Airport,Timisoara,Romania,TSR,45.80989837646485,21.337900161743164,348,2,E
Geneva Cointrin International Airport,Geneva,Switzerland,GVA,46.23809814453125,6.108950138092041,1411,1,E
Sion Airport,Sion,Switzerland,SIR,46.2196006775,7.326759815220001,1585,1,E
Emmen Air Base,Emmen,Switzerland,EML,47.092444,8.305183999999999,1400,1,E
Lugano Airport,Lugano,Switzerland,LUG,46.00429916379999,8.9105796814,915,1,E
Bern Belp Airport,Bern,Switzerland,BRN,46.914100647,7.4971499443099985,1674,1,E
Grenchen Airport,Grenchen,Switzerland,ZHI,47.181599,7.41719,1411,1,E
Zürich Airport,Zurich,Switzerland,ZRH,47.464698999999996,8.54917,1416,1,E
St Gallen Altenrhein Airport,Altenrhein,Switzerland,ACH,47.4850006104,9.560770034789998,1306,1,E
Samedan Airport,Samedan,Switzerland,SMV,46.53409957885742,9.884110450744627,5600,1,E
Esenboğa International Airport,Ankara,Turkey,ESB,40.128101348899996,32.995098114,3125,3,E
Etimesgut Air Base,Ankara,Turkey,ANK,39.949798584,32.6885986328,2653,3,E
Adana Airport,Adana,Turkey,ADA,36.982200622600004,35.2803993225,65,3,E
İncirlik Air Base,Adana,Turkey,UAB,37.0021018982,35.4258995056,238,3,E
Afyon Airport,Afyon,Turkey,AFY,38.726398468,30.601100921599997,3310,3,E
Antalya International Airport,Antalya,Turkey,AYT,36.898701,30.800501,177,3,E
Gaziantep International Airport,Gaziantep,Turkey,GZT,36.9472007751,37.4786987305,2315,3,E
Konya Airport,Konya,Turkey,KYA,37.979,32.561901,3392,3,E
Amasya Merzifon Airport,Merzifon,Turkey,MZH,40.829399,35.521999,1758,3,E
Sivas Nuri Demirağ Airport,Sivas,Turkey,VAS,39.813801,36.9035,5239,3,E
Malatya Erhaç Airport,Malatya,Turkey,MLX,38.435298919699996,38.0909996033,2828,3,E
Kayseri Erkilet Airport,Kayseri,Turkey,ASR,38.770401000999996,35.4953994751,3463,3,E
Tokat Airport,Tokat,Turkey,TJK,40.307430267333984,36.367408752441406,1831,3,E
Çardak Airport,Denizli,Turkey,DNZ,37.7855987549,29.701299667399997,2795,3,E
Atatürk International Airport,Istanbul,Turkey,ISL,40.976898,28.8146,163,3,E
Balıkesir Merkez Airport,Balikesir,Turkey,BZI,39.619300842285156,27.92600059509277,340,3,E
Bandırma Airport,Bandirma,Turkey,BDM,40.31800079345703,27.97769927978516,170,3,E
Eskişehir Air Base,Eskisehir,Turkey,ESK,39.7840995789,30.5820999146,2581,3,E
Adnan Menderes International Airport,Izmir,Turkey,ADB,38.292400360100004,27.156999588,412,3,E
Çiğli Airport,Izmir,Turkey,IGL,38.5130004883,27.010099411,16,3,E
Cengiz Topel Airport,Topel,Turkey,KCO,40.73500061035156,30.08329963684082,182,3,E
Dalaman International Airport,Dalaman,Turkey,DLM,36.7131004333,28.792499542199998,20,3,E
Imsık Airport,Bodrum,Turkey,BXN,37.140098571777344,27.669700622558594,202,3,E
Elazığ Airport,Elazig,Turkey,EZS,38.606899261500004,39.291400909400004,2927,3,E
Diyarbakir Airport,Diyabakir,Turkey,DIY,37.893901825,40.201000213600004,2251,3,E
Erzincan Airport,Erzincan,Turkey,ERC,39.7102012634,39.5270004272,3783,3,E
Erzurum International Airport,Erzurum,Turkey,ERZ,39.9565010071,41.17020034789999,5763,3,E
Trabzon International Airport,Trabzon,Turkey,TZX,40.99509811401367,39.78969955444336,104,3,E
Van Ferit Melen Airport,Van,Turkey,VAN,38.46820068359375,43.332298278808594,5480,3,E
Batman Airport,Batman,Turkey,BAL,37.929000854499996,41.1166000366,1822,3,E
Siirt Airport,Siirt,Turkey,SXZ,37.97890090942383,41.84040069580078,2001,3,E
Bălți International Airport,Saltsy,Moldova,BZY,47.843056,27.777222,758,2,E
Chişinău International Airport,Chisinau,Moldova,KIV,46.92770004272461,28.93099975585937,399,2,E
Ohrid St. Paul the Apostle Airport,Ohrid,Macedonia,OHD,41.18,20.7423,2313,1,E
Skopje Alexander the Great Airport,Skopje,Macedonia,SKP,41.961601,21.621401000000002,781,1,E
Gibraltar Airport,Gibraltar,Gibraltar,GIB,36.1511993408,-5.3496599197400005,15,1,N
Belgrade Nikola Tesla Airport,Belgrade,Serbia,BEG,44.8184013367,20.3090991974,335,1,E
Nis Airport,Nis,Serbia,INI,43.337299,21.853701,648,1,E
Podgorica Airport,Podgorica,Montenegro,TGD,42.359402,19.2519,141,1,E
Priština International Airport,Pristina,Serbia,PRN,42.5728,21.035801,1789,1,E
Tivat Airport,Tivat,Montenegro,TIV,42.404701232910156,18.72330093383789,20,1,E
M. R. Štefánik Airport,Bratislava,Slovakia,BTS,48.17020034790039,17.212699890136722,436,1,E
Košice Airport,Kosice,Slovakia,KSC,48.66310119628906,21.241100311279297,755,1,E
Piešťany Airport,Piestany,Slovakia,PZY,48.62519836425781,17.828399658203125,545,1,E
Sliač Airport,Sliac,Slovakia,SLD,48.63779830932617,19.13409996032715,1043,1,E
Poprad-Tatry Airport,Poprad,Slovakia,TAT,49.073600768999995,20.241100311300002,2356,1,E
Boryspil International Airport,Kiev,Ukraine,KBP,50.34500122070313,30.89469909667969,427,2,E
Donetsk International Airport,Donetsk,Ukraine,DOK,48.07360076904297,37.73970031738281,791,2,E
Dnipropetrovsk International Airport,Dnepropetrovsk,Ukraine,DNK,48.357200622558594,35.100601196289055,481,2,E
Simferopol International Airport,Simferopol,Ukraine,SIP,45.05220031738281,33.975101470947266,639,3,E
Kiev Zhuliany International Airport,Kiev,Ukraine,IEV,50.40194,30.451940000000004,587,2,E
Lviv International Airport,Lvov,Ukraine,LWO,49.8125,23.95610046386719,1071,2,E
Odessa International Airport,Odessa,Ukraine,ODS,46.42679977416992,30.67650032043457,172,2,E
Gomel Airport,Gomel,Belarus,GME,52.5270004272461,31.016700744628906,472,3,E
Vitebsk Vostochny Airport,Vitebsk,Belarus,VTB,55.126499176025,30.349599838257,682,3,E
Minsk 1 Airport,Minsk,Belarus,MHP,53.86449813842773,27.53969955444336,748,3,E
Minsk National Airport,Minsk 2,Belarus,MSQ,53.882499694824,28.030700683594,670,3,E
Eleftherios Venizelos International Airport,Athens,Greece,ATH,37.9364013672,23.944499969499997,308,2,E
Liepāja International Airport,Liepaja,Latvia,LPX,56.51750183105469,21.096900939941406,16,2,E
Riga International Airport,Riga,Latvia,RIX,56.92359924316406,23.971099853515625,36,2,E
Šiauliai International Airport,Siauliai,Lithuania,SQQ,55.89390182495117,23.395000457763672,443,2,E
Barysiai Airport,Barysiai,Lithuania,HLJ,56.07059860229492,23.5580997467041,270,2,E
Kaunas International Airport,Kaunas,Lithuania,KUN,54.96390151977539,24.084800720214844,256,2,E
Palanga International Airport,Palanga,Lithuania,PLQ,55.97320175170898,21.093900680541992,33,2,E
Vilnius International Airport,Vilnius,Lithuania,VNO,54.634102,25.285801,648,2,E
Panevėžys Air Base,Panevezys,Lithuania,PNV,55.72940063476562,24.46080017089844,197,2,E
Memmingen Allgau Airport,Memmingen,Germany,FMM,47.9888000488,10.2395000458,2077,1,E
Nevşehir Kapadokya Airport,Nevsehir,Turkey,NAV,38.7719,34.5345,3100,3,E
Athen Helenikon Airport,Athens,Greece,HEW,37.893299,23.726101,69,2,E
Palma De Mallorca Airport,Palma de Mallorca,Spain,PMI,39.551700591999996,2.73881006241,27,1,E
Xewkija Heliport,Gozo,Malta,GZM,36.027198999999996,14.2728,0,1,E
Madeira Airport,Funchal,Portugal,FNC,32.697899,-16.7745,192,0,E
Bol Airport,Brac,Croatia,BWK,43.28570175170898,16.67970085144043,1776,1,E
Aachen-Merzbrück Airport,Aachen,Germany,AAH,50.82305526733398,6.186388969421388,623,1,E
Karlsruhe Baden-Baden Airport,Karlsruhe/Baden-Baden,Germany,FKB,48.7793998718,8.08049964905,408,1,E
Astypalaia Airport,Astypalaia,Greece,JTY,36.5798988342,26.3757991791,165,2,E
Ikaria Airport,Ikaria,Greece,JIK,37.6827011108,26.3470993042,79,2,E
Kalymnos Airport,Kalymnos,Greece,JKL,36.963298797600004,26.9405994415,771,2,E
Milos Airport,Milos,Greece,MLO,36.696899,24.4769,10,2,E
Naxos Airport,Cyclades Islands,Greece,JNX,37.0811004639,25.3680992126,10,2,E
Paros National Airport,Paros,Greece,PAS,37.020495000000004,25.113195,131,2,E
Kastelorizo Airport,Kastelorizo,Greece,KZS,36.1417007446,29.5764007568,489,2,E
Weeze Airport,Weeze,Germany,NRN,51.6024017334,6.14216995239,106,1,E
Norden-Norddeich Airport,Norden,Germany,NOD,53.6330566406,7.190278053280001,3,1,E
Juist Airport,Juist,Germany,JUI,53.68111038208008,7.055832862854004,7,1,E
Stokmarknes Skagen Airport,Stokmarknes,Norway,SKN,68.578826904297,15.033416748047,11,1,E
Ancona Falconara Airport,Ancona,Italy,AOI,43.616299,13.3623,49,1,E
Milas Bodrum International Airport,Bodrum,Turkey,BJV,37.25059890749999,27.664300918600002,21,3,E
Sabiha Gökçen International Airport,Istanbul,Turkey,SAW,40.898601532,29.3092002869,312,3,E
Klagenfurt Airport,Klagenfurt,Austria,KLU,46.642502,14.3377,1472,1,E
Hammerfest Airport,Hammerfest,Norway,HFT,70.67970275878899,23.668600082397,266,1,E
Valan Airport,Honningsvag,Norway,HVG,71.009696960449,25.983600616455004,44,1,E
Mehamn Airport,Mehamn,Norway,MEH,71.02970123291,27.826700210570998,39,1,E
Vadsø Airport,Vadsø,Norway,VDS,70.065299987793,29.844699859619002,127,1,E
"Ørsta-Volda Airport, Hovden",Orsta-Volda,Norway,HOV,62.180000305176,6.074100017547599,243,1,E
St. Mary's Airport,ST MARY\'S,United Kingdom,ISC,49.91329956054688,-6.291669845581055,116,0,E
Narvik Framnes Airport,Narvik,Norway,NVK,68.436897277832,17.386699676514002,95,1,E
Berlevåg Airport,Berlevag,Norway,BVG,70.871399,29.034201,42,1,E
"Oslo, Fornebu Airport",Oslo,Norway,FBU,59.89580154418945,10.617199897766113,0,1,E
Heringsdorf Airport,Heringsdorf,Germany,HDF,53.8787002563,14.152299881,93,1,E
Heide-Büsum Airport,Büsum,Germany,HEI,54.1533317566,8.90166664124,7,1,E
Helgoland-Düne Airport,Helgoland,Germany,HGL,54.1852798462,7.91583299637,8,1,E
Seinäjoki Airport,Seinäjoki / Ilmajoki,Finland,SJY,62.692101,22.8323,302,2,E
Nottingham Airport,Nottingham,United Kingdom,NQT,52.91999816894531,-1.079169988632202,138,0,E
Robin Hood Doncaster Sheffield Airport,"Doncaster, Sheffield",United Kingdom,DSA,53.4805378105,-1.01065635681,55,0,E
Campbeltown Airport,Campbeltown,United Kingdom,CAL,55.43719863891602,-5.686389923095702,42,0,E
Eday Airport,Eday,United Kingdom,EOI,59.19060134887695,-2.7722198963165283,10,0,E
Fair Isle Airport,Fair Isle,United Kingdom,FIE,59.53580093383789,-1.628059983253479,223,0,E
North Ronaldsay Airport,North Ronaldsay,United Kingdom,NRL,59.367500305200004,-2.43443989754,40,0,E
Papa Westray Airport,Papa Westray,United Kingdom,PPW,59.351699829100006,-2.9002799987800003,91,0,E
Stronsay Airport,Stronsay,United Kingdom,SOY,59.1553001404,-2.6413900852200003,39,0,E
Sanday Airport,Sanday,United Kingdom,NDY,59.25030136108398,-2.576669931411743,68,0,E
Lerwick / Tingwall Airport,Lerwick,United Kingdom,LWK,60.192199707,-1.24361002445,43,0,E
Westray Airport,Westray,United Kingdom,WRY,59.350299835200005,-2.95000004768,29,0,E
Land's End Airport,Land's End,United Kingdom,LEQ,50.102798,-5.67056,398,0,E
Penzance Heliport,Penzance,United Kingdom,PZE,50.128101,-5.51845,14,0,E
Anglesey Airport,Angelsey,United Kingdom,VLY,53.248100280799996,-4.53533983231,37,0,E
Barra Airport,Barra,United Kingdom,BRR,57.0228,-7.443060000000001,5,0,E
Donegal Airport,Dongloe,Ireland,CFN,55.0442008972168,-8.340999603271483,30,0,E
Sindal Airport,Sindal,Denmark,CNL,57.503502000000005,10.2294,92,1,N
Leknes Airport,Leknes,Norway,LKN,68.152496337891,13.609399795532,78,1,E
Namsos Høknesøra Airport,Namsos,Norway,OSY,64.472198486328,11.57859992981,7,1,E
"Mo i Rana Airport, Røssvoll",Mo i Rana,Norway,MQN,66.363899230957,14.301400184631,229,1,E
"Rørvik Airport, Ryum",Rørvik,Norway,RVK,64.838302612305,11.14610004425,14,1,E
Røst Airport,Røst,Norway,RET,67.527801513672,12.103300094604002,7,1,E
Sandane Airport (Anda),Sandane,Norway,SDN,61.830001831055,6.1058301925659,196,1,E
Sogndal Airport,Sogndal,Norway,SOG,61.156101,7.13778,1633,1,E
Svolvær Helle Airport,Svolvær,Norway,SVJ,68.243301391602,14.669199943541999,27,1,E
Sørkjosen Airport,Sorkjosen,Norway,SOJ,69.786796569824,20.959400177002,16,1,E
"Vardø Airport, Svartnes",Vardø,Norway,VAW,70.355400085449,31.044900894165,42,1,E
Værøy Heliport,Værøy,Norway,VRY,67.654555,12.727257,12,1,E
Bydgoszcz Ignacy Jan Paderewski Airport,Bydgoszcz,Poland,BZG,53.096801757799994,17.9776992798,235,1,E
Łódź Władysław Reymont Airport,Lodz,Poland,LCJ,51.721900939899996,19.3980998993,604,1,E
Åre Östersund Airport,Östersund,Sweden,OSD,63.194400787354,14.500300407410002,1233,1,E
Hagfors Airport,Hagfors,Sweden,HFS,60.02009963989258,13.578900337219238,474,1,E
Karlstad Airport,Karlstad,Sweden,KSD,59.444698333699996,13.337400436400001,352,1,E
Torsby Airport,Torsby,Sweden,TYF,60.1576004028,12.991299629199998,393,1,E
Ängelholm-Helsingborg Airport,Ängelholm,Sweden,AGH,56.29610061645508,12.847100257873535,68,1,E
Storuman Airport,Mohed,Sweden,SQO,64.96089935302734,17.69659996032715,915,1,E
Hemavan Airport,Hemavan,Sweden,HMV,65.80609893798828,15.082799911499025,1503,1,E
Ventspils International Airport,Ventspils,Latvia,VNT,57.35779953,21.5442008972,19,2,E
Outer Skerries Airport,Outer Skerries,United Kingdom,OUK,60.4252,-0.75,76,0,E
Logroño-Agoncillo Airport,Logroño-Agoncillo,Spain,RJL,42.4609534888,-2.32223510742,1161,1,E
Île d'Yeu Airport,Île d'Yeu,France,IDY,46.71860122680664,-2.3911099433898926,79,1,E
Angers-Loire Airport,Angers/Marcé,France,ANE,47.560299,-0.312222,194,1,E
La Môle Airport,La Môle,France,LTT,43.205399,6.482,59,1,E
Syros Airport,Syros Island,Greece,JSY,37.422798156700004,24.950899124099998,236,2,E
Pécs-Pogány Airport,Pécs-Pogány,Hungary,PEV,45.990898,18.240996,1000,1,N
Sármellék International Airport,Sármellék,Hungary,SOB,46.686391,17.159084,408,1,N
Aosta Airport,Aosta,Italy,AOT,45.738499,7.36872,1791,1,E
Salerno Costa d'Amalfi Airport,Salerno,Italy,QSR,40.620399,14.9113,119,1,E
Banja Luka International Airport,Banja Luka,Bosnia and Herzegovina,BNX,44.94139862060547,17.297500610351562,400,1,E
Uşak Airport,Usak,Turkey,USQ,38.68149948120117,29.47170066833496,2897,3,E
Kars Airport,Kars,Turkey,KSY,40.562198638916016,43.1150016784668,5889,3,E
Şanlıurfa Airport,Sanliurfa,Turkey,SFQ,37.09429931640625,38.84709930419922,1483,3,E
Kahramanmaraş Airport,Kahramanmaras,Turkey,KCM,37.5388259888,36.9535217285,1723,3,E
Ağrı Airport,Agri,Turkey,AJI,39.654541015625,43.025978088378906,5462,3,E
Adıyaman Airport,Adiyaman,Turkey,ADF,37.7313995361,38.4688987732,2216,3,E
Süleyman Demirel International Airport,Isparta,Turkey,ISE,37.8554000854,30.368400573699997,2835,3,E
Balıkesir Körfez Airport,Balikesir Korfez,Turkey,EDO,39.554599761999995,27.013799667399997,50,3,E
Samsun Çarşamba Airport,Samsun,Turkey,SZF,41.254501,36.567101,18,3,E
Žilina Airport,Žilina,Slovakia,ILZ,49.231498718299996,18.6135005951,1020,1,E
Mariupol International Airport,Mariupol International,Ukraine,MPW,47.07609939575195,37.44960021972656,251,2,E
Luhansk International Airport,Lugansk,Ukraine,VSG,48.417400360100004,39.3740997314,636,2,E
Zaporizhzhia International Airport,Zaporozhye,Ukraine,OZH,47.86700057983398,35.31570053100586,373,2,E
Kryvyi Rih International Airport,Krivoy Rog,Ukraine,KWG,48.04330062866211,33.209999084472656,408,2,E
Kharkiv International Airport,Kharkov,Ukraine,HRK,49.92480087280274,36.290000915527344,508,2,E
Ivano-Frankivsk International Airport,Ivano-Frankivsk,Ukraine,IFO,48.88420104980469,24.68610000610352,919,2,E
Chernivtsi International Airport,Chernovtsk,Ukraine,CWC,48.2593002319336,25.98080062866211,826,2,E
Rivne International Airport,Rivne,Ukraine,RWN,50.60710144042969,26.14159965515137,755,2,E
Uzhhorod International Airport,Uzhgorod,Ukraine,UDJ,48.6343002319336,22.263399124145508,383,2,E
Hrodna Airport,Hrodna,Belarus,GNA,53.60200119018555,24.053800582885746,443,3,E
Mogilev Airport,Mogilev,Belarus,MVQ,53.95489883422852,30.09510040283203,637,3,E
Inishmore Aerodrome,Inis Mor,Ireland,IOR,53.1067008972168,-9.653610229492188,24,0,U
Connemara Regional Airport,Indreabhan,Ireland,NNR,53.23030090332031,-9.467780113220217,70,0,U
Rügen Airport,Ruegen,Germany,GTI,54.3833312988,13.3255558014,69,1,U
Unst Airport,Unst,United Kingdom,UNT,60.74720001220703,-0.8538500070571899,0,0,E
Oban Airport,North Connel,United Kingdom,OBN,56.4635009765625,-5.399670124053955,20,0,E
Courchevel Airport,Courcheval,France,CVF,45.39670181274414,6.6347198486328125,6588,1,E
La Rochelle-Île de Ré Airport,La Rochelle,France,LRH,46.17919921875,-1.1952799558639526,74,1,E
Pajala Airport,Pajala,Sweden,PJA,67.24559783935547,23.06889915466309,542,1,E
Mardin Airport,Mardin,Turkey,MQM,37.223300933800004,40.6316986084,1729,3,E
Leon Airport,Leon,Spain,LEN,42.5890007019043,-5.65556001663208,3006,1,E
Burgos Airport,Burgos,Spain,RGS,42.357601,-3.6207599999999998,2945,1,E
Anadolu Airport,Eskissehir,Turkey,AOE,39.809898,30.5194,2588,3,E
Çanakkale Airport,Canakkale,Turkey,CKZ,40.1376991272,26.4267997742,23,3,E
Muş Airport,Mus,Turkey,MSR,38.74779891967773,41.66120147705078,4157,3,E
Sinop Airport,Sinop,Turkey,NOP,42.015800476074,35.066398620605,20,3,E
Tekirdağ Çorlu Airport,Çorlu,Turkey,TEQ,41.13819885253906,27.919099807739254,574,3,E
Bursa Yenişehir Airport,Yenisehir,Turkey,YEI,40.2551994324,29.5625991821,764,3,E
Hohenems-Dornbirn Airport,Hohenems,Austria,HOH,47.3849983215,9.699999809269999,1352,1,E
Sabadell Airport,Sabadell,Spain,QSA,41.52090072631836,2.1050798892974854,485,1,E
Lympne Airport,Lympne,United Kingdom,LYM,51.08,1.013,351,0,E
Porto Cheli Airport,Porto Heli,Greece,PKH,37.297501000000004,23.1478,69,2,E
Lutsk Airport,Lutsk,Ukraine,UCK,50.678404,25.487165,774,2,U
Chernihiv Shestovitsa Airport,Chernigov,Ukraine,CEJ,51.4021987915,31.1583003998,446,2,E
Brest Airport,Brest,Belarus,BQT,52.108299,23.8981,468,3,E
Wangerooge Airport,Wangerooge,Germany,AGE,53.78277969360352,7.913888931274414,7,1,E
Lausanne-Blécherette Airport,Lausanne,Switzerland,QLS,46.54529953,6.616670131679999,2041,1,E
Locarno Airport,Locarno,Switzerland,ZJI,46.160800933800004,8.87860965729,650,1,E
Neuchatel Airport,Neuchatel,Switzerland,QNC,46.957500457799995,6.86471986771,1427,1,E
Tuzla International Airport,Null,Bosnia and Herzegovina,TZL,44.45869827270508,18.72480010986328,784,1,E
Langeoog Airport,Langeoog,Germany,LGO,53.74250030517578,7.4977779388427725,7,1,E
Cherkasy International Airport,Cherkassy,Ukraine,CKC,49.41559982299805,31.99530029296875,375,2,E
Mykolaiv International Airport,Nikolayev,Ukraine,NLV,47.057899475097656,31.9197998046875,184,2,E
Interlaken Air Base,Interlaken,Switzerland,ZIN,46.676601399999996,7.8790797999999995,0,1,E
Inisheer Aerodrome,Inisheer,Ireland,INQ,53.06470108032226,-9.510899543762207,40,0,E
Hatay Airport,Hatay,Turkey,HTY,36.36277771,36.282222747800006,269,3,U
Lleida-Alguaire Airport,Lleida,Spain,ILD,41.728184999999996,0.5350229999999999,1170,1,E
Inishmaan Aerodrome,Inishmaan,Ireland,IIA,53.09299850463867,-9.568059921264648,15,0,U
Huesca/Pirineos Airport,Huesca,Spain,HSK,42.0760993958,-0.316666990519,1768,1,U
Ciudad Real Central Airport,Ciudad Real,Spain,CQM,38.8563888889,-3.97,0,1,U
Colonsay Airstrip,Colonsay,United Kingdom,CSA,56.05749893189999,-6.243060112,44,0,U
Kherson International Airport,Kherson,Ukraine,KHE,46.6758,32.506401000000004,148,2,E
Fréjus Airport,Frejus,France,FRJ,43.4175,6.7357,33,1,E
Oristano-Fenosu Airport,Oristano,Italy,FNU,39.895308,8.642661,36,1,E
Wycombe Air Park,Wycombe,United Kingdom,HYC,51.611698150600006,-0.8083329796790001,515,0,E
Bembridge Airport,Bembridge,United Kingdom,BBP,50.678100585900005,-1.10943996906,53,0,E
Oksywie Military Air Base,Gdynia,Poland,QYD,54.57970047,18.51720047,144,1,E
Zonguldak Airport,Zonguldak,Turkey,ONQ,41.506401061999995,32.0886001587,39,3,E
Kirovograd Airport,Kirovograd,Ukraine,KGO,48.54280090332031,32.28499984741211,568,2,E
Belbek Airport,Sevastopol,Ukraine,UKS,44.688999176,33.570999145500004,344,3,U
Stafsberg Airport,Hamar,Norway,HMR,60.81809997558594,11.067999839782717,713,1,E
Lahr Airport,Lahr,Germany,LHA,48.36930084229999,7.82772016525,511,1,E
Cochstedt Airport,Cochstedt,Germany,CSO,51.8563995361,11.42029953,594,1,E
Kerch Airport,Kerch,Ukraine,KHC,45.37250137329102,36.40140151977539,171,3,E
Gostomel Airport,Kiev,Ukraine,GML,50.60350036621094,30.1919002532959,517,2,E
Radom Airport,RADOM,Poland,RDO,51.3891983032,21.213300705,610,1,E
Megève Airport,Verdun,France,MVV,45.82080078125,6.652219772338867,4823,1,U
Méribel Altiport,Ajaccio,France,MFX,45.407003,6.577942,5636,1,U
Köthen Airport,Koethen,Germany,KOQ,51.721111297600004,11.9527778625,305,1,E
St. Peter-Ording Airport,Sankt Peter-Ording,Germany,PSH,54.30888748168945,8.686944007873535,7,1,E
Vinnytsia/Gavyryshivka Airport,Vinnitsa,Ukraine,VIN,49.242531,28.613778000000003,961,2,E
Gazipaşa Airport,Alanya,Turkey,GZP,36.299217,32.300598,86,3,E
Suprunovka Airport,Poltava,Ukraine,PLV,49.56859970092773,34.397201538085945,505,2,U
Modlin Airport,Warsaw,Poland,WMI,52.451099,20.6518,341,1,E
Khmelnytskyi Airport,Khmeinitskiy,Ukraine,HMJ,49.359699,26.933398999999998,1150,2,E
Buochs Airport,Buochs,Switzerland,BXO,46.974444,8.396944,1475,1,E
Perth/Scone Airport,Perth,United Kingdom,PSL,56.43920135498047,-3.3722200393676762,397,0,E
Söderhamn Airport,Soderhamn,Sweden,SOO,61.26150131225586,17.09910011291504,88,1,E
Bantry Aerodrome,Bantry,Ireland,BYT,51.66859817504883,-9.484169960021973,7,0,E
Peenemünde Airport,Peenemunde,Germany,PEF,54.1577796936,13.774443626399998,7,1,E
Duxford Aerodrome,Duxford,United Kingdom,QFO,52.090801,0.131944,125,0,E
Lublin Airport,Lublin,Poland,LUZ,51.240278,22.713611,633,1,E
Lošinj Island Airport,Mali Losinj,Croatia,LSZ,44.565799713100006,14.3930997849,151,1,E
Bitburg Airport,Birburg,Germany,BBJ,49.945278,6.565,1220,1,U
Rochester Airport,Rochester,United Kingdom,RCS,51.35189819335938,0.5033329725265503,436,0,E
Zhytomyr Airport,Zhytomyr,Ukraine,ZTR,50.270556,28.738611,0,2,E
Redhill Aerodrome,Redhill,United Kingdom,KRH,51.2136001587,-0.138611003757,222,0,E
Iğdır Airport,Igdir,Turkey,IGD,39.9766273499,43.8766479492,3101,3,E
Şanlıurfa GAP Airport,Sanliurfa,Turkey,GNY,37.445663,38.895592,2708,3,E
Zafer Airport,Kutahya,Turkey,KZR,39.113079,30.128110999999997,3327,3,E
Neumünster Airport,Neumuenster,Germany,EUM,54.079444885253906,9.941389083862305,72,1,E
Bingöl Çeltiksuyu Airport,Bingol,Turkey,BGG,38.8592605591,40.5959625244,3506,3,E
Kastamonu Airport,Kastamonu,Turkey,KFS,41.31420135498047,33.79579925537109,3520,3,E
Comiso Airport,Comiso,Italy,CIY,36.994601,14.607182,623,1,E
Fontaine Airport,Belfort,France,BOR,47.65560150146499,7.0108299255371,1208,1,E
Bursa Airport,Bursa,Turkey,BTZ,40.233299255371094,29.00919914245605,331,3,U
Taszár Air Base,Columbus,United States,TZR,46.39310073852539,17.917499542236328,531,1,A
Şırnak Şerafettin Elçi Airport,Cizre,Turkey,NKT,37.3647,42.0582,2038,3,E
